0 BEIDOU 1
1 26599U 00069A   13280.30472289 -.00000155  00000-0  00000+0 0  3080
2 26599 004.6459 064.3590 0014617 284.8225 075.1600 00.98909098 47370
0 BEIDOU 1
1 26599U 00069A   13282.32659355 -.00000115  00000-0  00000+0 0  3092
2 26599 004.6502 064.3364 0014706 285.8089 074.1384 00.98908359 47395
0 BEIDOU 1
1 26599U 00069A   13284.34858636 -.00000075  00000-0  00000+0 0  3106
2 26599 004.6543 064.3158 0014735 285.8687 074.0783 00.98907748 47413
0 BEIDOU 1
1 26599U 00069A   13286.37063645 -.00000034  00000-0  00000+0 0  3115
2 26599 004.6585 064.2946 0014717 285.5806 074.3807 00.98907282 47438
0 BEIDOU 1
1 26599U 00069A   13288.39264462  .00000003  00000-0  00000+0 0  3125
2 26599 004.6628 064.2730 0014602 285.1138 074.8448 00.98907046 47450
0 BEIDOU 1
1 26599U 00069A   13290.41455209  .00000031  00000-0  00000+0 0  3134
2 26599 004.6671 064.2527 0014596 284.2781 075.6412 00.98907069 47475
0 BEIDOU 1
1 26599U 00069A   13290.41455573  .00000000  00000-0  10000-3 0  3140
2 26599 004.6689 064.2465 0014561 282.2526 077.6745 00.98903030 47477
0 BEIDOU 1
1 26599U 00069A   13292.43641791  .00000045  00000-0  00000+0 0  3147
2 26599 004.6713 064.2327 0014568 284.4244 075.4441 00.98907352 47492
